0 FENGYUN 1C DEB
1 33632U 99025DDR 13280.77507236  .00004262  00000-0  15265-2 0  4050
2 33632 099.0378 031.7195 0065410 104.0515 256.7950 14.33331526286701
0 FENGYUN 1C DEB
1 33632U 99025DDR 13283.07868422  .00006196  00000-0  22100-2 0  4068
2 33632 099.0372 034.1235 0065154 097.3752 263.4841 14.33358474287031
0 FENGYUN 1C DEB
1 33632U 99025DDR 13285.52186242  .00004738  00000-0  16940-2 0  4079
2 33632 099.0370 036.6728 0064887 090.3101 270.5518 14.33381781287381
0 FENGYUN 1C DEB
1 33632U 99025DDR 13287.54617865  .00005495  00000-0  19612-2 0  4084
2 33632 099.0373 038.7850 0064680 084.4267 276.4288 14.33398776287674
0 FENGYUN 1C DEB
1 33632U 99025DDR 13289.50065851  .00006753  00000-0  24052-2 0  4097
2 33632 099.0399 040.8267 0064491 078.5529 282.2887 14.33425226287955
0 FENGYUN 1C DEB
1 33632U 99025DDR 13291.52490712  .00006059  00000-0  21590-2 0  4105
2 33632 099.0389 042.9386 0064310 072.7424 288.0783 14.33447836288242
0 FENGYUN 1C DEB
1 33632U 99025DDR 13293.75852284  .00006202  00000-0  22088-2 0  4112
2 33632 099.0387 045.2702 0064138 066.1969 294.5921 14.33470833288561
